{"type": "FeatureCollection", "features": [ {"type": "Feature", "properties": {"norad_id": 39122, "name": "EUTELSAT 117 WEST A", "group": "eutelsat", "lat": 0.01823687323007847, "lon": 122.99671156427982, "alt_km": 35796.380848254164, "timestamp": "2025-12-24T09:46:30.666888+00:00", "meta": {"OBJECT_NAME": "EUTELSAT 117 WEST A", "OBJECT_ID": "2013-012A", "EPOCH": "2025-12-23T16:00:05.299200", "MEAN_MOTION": 1.00270813, "ECCENTRICITY": 0.00026851, "INCLINATION": 0.0226, "RA_OF_ASC_NODE": 313.4585, "ARG_OF_PERICENTER": 321.6945, "MEAN_ANOMALY": 300.5313, "EPHEMERIS_TYPE": 0, "CLASSIFICATION_TYPE": "U", "NORAD_CAT_ID": 39122, "ELEMENT_SET_NO": 999, "REV_AT_EPOCH": 4667, "BSTAR": 0, "MEAN_MOTION_DOT": 8e-08, "MEAN_MOTION_DDOT": 0}, "tle": {"line1": "1 39122U 13012A   25357.66672800  .00000008  00000+0  00000+0 0  9997", "line2": "2 39122   0.0226 313.4585 0002685 321.6945 300.5313  1.00270813 46679"}}, "geometry": {"type": "Point", "coordinates": [122.99671156427982, 0.01823687323007847]}}, {"type": "Feature", "properties": {"norad_id": 39163, "name": "EUTELSAT 7B", "group": "eutelsat", "lat": -0.07525982672985103, "lon": -113.25401236913157, "alt_km": 35781.33011358711, "timestamp": "2025-12-24T09:46:30.666905+00:00", "meta": {"OBJECT_NAME": "EUTELSAT 7B", "OBJECT_ID": "2013-022A", "EPOCH": "2025-12-24T00:36:02.598048", "MEAN_MOTION": 1.00271492, "ECCENTRICITY": 0.0004542, "INCLINATION": 0.0653, "RA_OF_ASC_NODE": 6.9519, "ARG_OF_PERICENTER": 315.4949, "MEAN_ANOMALY": 146.3626, "EPHEMERIS_TYPE": 0, "CLASSIFICATION_TYPE": "U", "NORAD_CAT_ID": 39163, "ELEMENT_SET_NO": 999, "REV_AT_EPOCH": 4619, "BSTAR": 0, "MEAN_MOTION_DOT": 6.9e-07, "MEAN_MOTION_DDOT": 0}, "tle": {"line1": "1 39163U 13022A   25358.02503007  .00000069  00000+0  00000+0 0  9993", "line2": "2 39163   0.0653   6.9519 0004542 315.4949 146.3626  1.00271492 46192"}}, "geometry": {"type": "Point", "coordinates": [-113.25401236913157, -0.07525982672985103]}}, {"type": "Feature", "properties": {"norad_id": 39612, "name": "EXPRESS-AT1", "group": "eutelsat", "lat": -0.010863539128585642, "lon": -64.19782326113649, "alt_km": 35790.07796968787, "timestamp": "2025-12-24T09:46:30.666918+00:00", "meta": {"OBJECT_NAME": "EXPRESS-AT1", "OBJECT_ID": "2014-010A", "EPOCH": "2025-12-24T02:18:38.733696", "MEAN_MOTION": 1.00271168, "ECCENTRICITY": 9.11e-05, "INCLINATION": 0.0142, "RA_OF_ASC_NODE": 288.2114, "ARG_OF_PERICENTER": 190.815, "MEAN_ANOMALY": 64.5094, "EPHEMERIS_TYPE": 0, "CLASSIFICATION_TYPE": "U", "NORAD_CAT_ID": 39612, "ELEMENT_SET_NO": 999, "REV_AT_EPOCH": 4306, "BSTAR": 0, "MEAN_MOTION_DOT": 1e-06, "MEAN_MOTION_DDOT": 0}, "tle": {"line1": "1 39612U 14010A   25358.09628164  .00000100  00000+0  00000+0 0  9995", "line2": "2 39612   0.0142 288.2114 0000911 190.8150  64.5094  1.00271168 43068"}}, "geometry": {"type": "Point", "coordinates": [-64.19782326113649, -0.010863539128585642]}}, {"type": "Feature", "properties": {"norad_id": 39613, "name": "EXPRESS-AT2", "group": "eutelsat", "lat": 0.01753046173705906, "lon": 19.685537663686368, "alt_km": 35786.38594351149, "timestamp": "2025-12-24T09:46:30.666931+00:00", "meta": {"OBJECT_NAME": "EXPRESS-AT2", "OBJECT_ID": "2014-010B", "EPOCH": "2025-12-24T05:14:10.338144", "MEAN_MOTION": 1.00273009, "ECCENTRICITY": 0.0001526, "INCLINATION": 0.0153, "RA_OF_ASC_NODE": 314.0505, "ARG_OF_PERICENTER": 330.1441, "MEAN_ANOMALY": 27.2081, "EPHEMERIS_TYPE": 0, "CLASSIFICATION_TYPE": "U", "NORAD_CAT_ID": 39613, "ELEMENT_SET_NO": 999, "REV_AT_EPOCH": 4274, "BSTAR": 0, "MEAN_MOTION_DOT": -2.6e-06, "MEAN_MOTION_DDOT": 0}, "tle": {"line1": "1 39613U 14010B   25358.21817521 -.00000260  00000+0  00000+0 0  9995", "line2": "2 39613   0.0153 314.0505 0001526 330.1441  27.2081  1.00273009 42740"}}, "geometry": {"type": "Point", "coordinates": [19.685537663686368, 0.01753046173705906]}}, {"type": "Feature", "properties": {"norad_id": 39773, "name": "EUTELSAT 3B", "group": "eutelsat", "lat": -0.07691454021490302, "lon": -117.07572033756145, "alt_km": 35767.9234087538, "timestamp": "2025-12-24T09:46:30.666943+00:00", "meta": {"OBJECT_NAME": "EUTELSAT 3B", "OBJECT_ID": "2014-030A", "EPOCH": "2025-12-24T00:36:38.599200", "MEAN_MOTION": 1.00272555, "ECCENTRICITY": 0.0004332, "INCLINATION": 0.0611, "RA_OF_ASC_NODE": 346.8911, "ARG_OF_PERICENTER": 244.7236, "MEAN_ANOMALY": 233.4623, "EPHEMERIS_TYPE": 0, "CLASSIFICATION_TYPE": "U", "NORAD_CAT_ID": 39773, "ELEMENT_SET_NO": 999, "REV_AT_EPOCH": 4231, "BSTAR": 0, "MEAN_MOTION_DOT": 4.1e-07, "MEAN_MOTION_DDOT": 0}, "tle": {"line1": "1 39773U 14030A   25358.02544675  .00000041  00000+0  00000+0 0  9996", "line2": "2 39773   0.0611 346.8911 0004332 244.7236 233.4623  1.00272555 42311"}}, "geometry": {"type": "Point", "coordinates": [-117.07572033756145, -0.07691454021490302]}}, {"type": "Feature", "properties": {"norad_id": 40425, "name": "EUTELSAT 115 WEST B", "group": "eutelsat", "lat": -0.00439654743904102, "lon": 124.88119922020334, "alt_km": 35787.05745698186, "timestamp": "2025-12-24T09:46:30.666955+00:00", "meta": {"OBJECT_NAME": "EUTELSAT 115 WEST B", "OBJECT_ID": "2015-010B", "EPOCH": "2025-12-24T03:21:59.996736", "MEAN_MOTION": 1.00270858, "ECCENTRICITY": 1.78e-05, "INCLINATION": 0.0115, "RA_OF_ASC_NODE": 149.9251, "ARG_OF_PERICENTER": 171.1995, "MEAN_ANOMALY": 67.3724, "EPHEMERIS_TYPE": 0, "CLASSIFICATION_TYPE": "U", "NORAD_CAT_ID": 40425, "ELEMENT_SET_NO": 999, "REV_AT_EPOCH": 3963, "BSTAR": 0, "MEAN_MOTION_DOT": -4e-08, "MEAN_MOTION_DDOT": 0}, "tle": {"line1": "1 40425U 15010B   25358.14027774 -.00000004  00000+0  00000+0 0  9990", "line2": "2 40425   0.0115 149.9251 0000178 171.1995  67.3724  1.00270858 39635"}}, "geometry": {"type": "Point", "coordinates": [124.88119922020334, -0.00439654743904102]}}, {"type": "Feature", "properties": {"norad_id": 40875, "name": "EUTELSAT 8 WEST B", "group": "eutelsat", "lat": -0.06033554270829718, "lon": -128.2303704382241, "alt_km": 35772.88256512746, "timestamp": "2025-12-24T09:46:30.666967+00:00", "meta": {"OBJECT_NAME": "EUTELSAT 8 WEST B", "OBJECT_ID": "2015-039B", "EPOCH": "2025-12-24T00:44:38.545152", "MEAN_MOTION": 1.00271254, "ECCENTRICITY": 0.0004236, "INCLINATION": 0.0638, "RA_OF_ASC_NODE": 6.4748, "ARG_OF_PERICENTER": 267.1909, "MEAN_ANOMALY": 182.3056, "EPHEMERIS_TYPE": 0, "CLASSIFICATION_TYPE": "U", "NORAD_CAT_ID": 40875, "ELEMENT_SET_NO": 999, "REV_AT_EPOCH": 3790, "BSTAR": 0, "MEAN_MOTION_DOT": -4.5e-07, "MEAN_MOTION_DDOT": 0}, "tle": {"line1": "1 40875U 15039B   25358.03100168 -.00000045  00000+0  00000+0 0  9992", "line2": "2 40875   0.0638   6.4748 0004236 267.1909 182.3056  1.00271254 37907"}}, "geometry": {"type": "Point", "coordinates": [-128.2303704382241, -0.06033554270829718]}}, {"type": "Feature", "properties": {"norad_id": 41310, "name": "EUTELSAT 9B", "group": "eutelsat", "lat": -0.02770736932181982, "lon": -111.20028215474518, "alt_km": 35768.02277984947, "timestamp": "2025-12-24T09:46:30.666979+00:00", "meta": {"OBJECT_NAME": "EUTELSAT 9B", "OBJECT_ID": "2016-005A", "EPOCH": "2025-12-24T00:28:38.654112", "MEAN_MOTION": 1.00272778, "ECCENTRICITY": 0.0004524, "INCLINATION": 0.0224, "RA_OF_ASC_NODE": 37.9283, "ARG_OF_PERICENTER": 232.9243, "MEAN_ANOMALY": 198.1231, "EPHEMERIS_TYPE": 0, "CLASSIFICATION_TYPE": "U", "NORAD_CAT_ID": 41310, "ELEMENT_SET_NO": 999, "REV_AT_EPOCH": 3636, "BSTAR": 0, "MEAN_MOTION_DOT": 8.3e-07, "MEAN_MOTION_DDOT": 0}, "tle": {"line1": "1 41310U 16005A   25358.01989183  .00000083  00000+0  00000+0 0  9992", "line2": "2 41310   0.0224  37.9283 0004524 232.9243 198.1231  1.00272778 36368"}}, "geometry": {"type": "Point", "coordinates": [-111.20028215474518, -0.02770736932181982]}}, {"type": "Feature", "properties": {"norad_id": 41382, "name": "EUTELSAT 65 WEST A", "group": "eutelsat", "lat": -0.007315744565648829, "lon": 174.59759756325653, "alt_km": 35787.80857125358, "timestamp": "2025-12-24T09:46:30.666991+00:00", "meta": {"OBJECT_NAME": "EUTELSAT 65 WEST A", "OBJECT_ID": "2016-014A", "EPOCH": "2025-12-24T00:43:23.206080", "MEAN_MOTION": 1.00272444, "ECCENTRICITY": 0.0002229, "INCLINATION": 0.0493, "RA_OF_ASC_NODE": 341.2447, "ARG_OF_PERICENTER": 294.7713, "MEAN_ANOMALY": 122.4597, "EPHEMERIS_TYPE": 0, "CLASSIFICATION_TYPE": "U", "NORAD_CAT_ID": 41382, "ELEMENT_SET_NO": 999, "REV_AT_EPOCH": 3577, "BSTAR": 0, "MEAN_MOTION_DOT": -2.55e-06, "MEAN_MOTION_DDOT": 0}, "tle": {"line1": "1 41382U 16014A   25358.03012970 -.00000255  00000+0  00000+0 0  9996", "line2": "2 41382   0.0493 341.2447 0002229 294.7713 122.4597  1.00272444 35775"}}, "geometry": {"type": "Point", "coordinates": [174.59759756325653, -0.007315744565648829]}}, {"type": "Feature", "properties": {"norad_id": 41589, "name": "EUTELSAT 117 WEST B", "group": "eutelsat", "lat": -0.0045868182476249495, "lon": 122.78665630967262, "alt_km": 35787.89231288276, "timestamp": "2025-12-24T09:46:30.667003+00:00", "meta": {"OBJECT_NAME": "EUTELSAT 117 WEST B", "OBJECT_ID": "2016-038B", "EPOCH": "2025-12-23T15:59:57.810048", "MEAN_MOTION": 1.00269264, "ECCENTRICITY": 2.68e-05, "INCLINATION": 0.0112, "RA_OF_ASC_NODE": 151.1868, "ARG_OF_PERICENTER": 153.5074, "MEAN_ANOMALY": 270.7383, "EPHEMERIS_TYPE": 0, "CLASSIFICATION_TYPE": "U", "NORAD_CAT_ID": 41589, "ELEMENT_SET_NO": 999, "REV_AT_EPOCH": 3490, "BSTAR": 0, "MEAN_MOTION_DOT": 1e-07, "MEAN_MOTION_DDOT": 0}, "tle": {"line1": "1 41589U 16038B   25357.66664132  .00000010  00000+0  00000+0 0  9990", "line2": "2 41589   0.0112 151.1868 0000268 153.5074 270.7383  1.00269264 34900"}}, "geometry": {"type": "Point", "coordinates": [122.78665630967262, -0.0045868182476249495]}}]}